{"type": "FeatureCollection", "features": [ {"type": "Feature", "properties": {"norad_id": 39634, "name": "SENTINEL-1A", "group": "resource", "lat": 19.344472365278676, "lon": 2.3077561822406243, "alt_km": 695.5515251210345, "timestamp": "2025-12-26T03:50:11.744760+00:00", "meta": {"OBJECT_NAME": "SENTINEL-1A", "OBJECT_ID": "2014-016A", "EPOCH": "2025-12-25T21:09:51.897888", "MEAN_MOTION": 14.59199007, "ECCENTRICITY": 0.000126, "INCLINATION": 98.1803, "RA_OF_ASC_NODE": 4.9285, "ARG_OF_PERICENTER": 85.6066, "MEAN_ANOMALY": 274.5278, "EPHEMERIS_TYPE": 0, "CLASSIFICATION_TYPE": "U", "NORAD_CAT_ID": 39634, "ELEMENT_SET_NO": 999, "REV_AT_EPOCH": 62474, "BSTAR": -2.2068e-05, "MEAN_MOTION_DOT": -1.5e-06, "MEAN_MOTION_DDOT": 0}, "tle": {"line1": "1 39634U 14016A   25359.88185067 -.00000150  00000+0 -22068-4 0  9993", "line2": "2 39634  98.1803   4.9285 0001260  85.6066 274.5278 14.59199007624747"}}, "geometry": {"type": "Point", "coordinates": [2.3077561822406243, 19.344472365278676]}}, {"type": "Feature", "properties": {"norad_id": 39731, "name": "KAZEOSAT 1", "group": "resource", "lat": -66.32531556120213, "lon": -127.78545557124224, "alt_km": 759.6672944121829, "timestamp": "2025-12-26T03:50:11.744770+00:00", "meta": {"OBJECT_NAME": "KAZEOSAT 1", "OBJECT_ID": "2014-024A", "EPOCH": "2025-12-25T20:01:49.486656", "MEAN_MOTION": 14.42069408, "ECCENTRICITY": 0.0001222, "INCLINATION": 98.3415, "RA_OF_ASC_NODE": 71.4472, "ARG_OF_PERICENTER": 96.0728, "MEAN_ANOMALY": 264.0601, "EPHEMERIS_TYPE": 0, "CLASSIFICATION_TYPE": "U", "NORAD_CAT_ID": 39731, "ELEMENT_SET_NO": 999, "REV_AT_EPOCH": 61357, "BSTAR": 5.7159e-05, "MEAN_MOTION_DOT": 1.45e-06, "MEAN_MOTION_DDOT": 0}, "tle": {"line1": "1 39731U 14024A   25359.83460054  .00000145  00000+0  57159-4 0  9998", "line2": "2 39731  98.3415  71.4472 0001222  96.0728 264.0601 14.42069408613578"}}, "geometry": {"type": "Point", "coordinates": [-127.78545557124224, -66.32531556120213]}}, {"type": "Feature", "properties": {"norad_id": 39766, "name": "ALOS-2", "group": "resource", "lat": 43.505575213159275, "lon": -77.59090123382722, "alt_km": 626.6289506543308, "timestamp": "2025-12-26T03:50:11.744781+00:00", "meta": {"OBJECT_NAME": "ALOS-2", "OBJECT_ID": "2014-029A", "EPOCH": "2025-12-25T20:43:54.487776", "MEAN_MOTION": 14.79469129, "ECCENTRICITY": 0.0001391, "INCLINATION": 97.9218, "RA_OF_ASC_NODE": 94.5228, "ARG_OF_PERICENTER": 97.4006, "MEAN_ANOMALY": 262.7364, "EPHEMERIS_TYPE": 0, "CLASSIFICATION_TYPE": "U", "NORAD_CAT_ID": 39766, "ELEMENT_SET_NO": 999, "REV_AT_EPOCH": 62595, "BSTAR": 0.00012098, "MEAN_MOTION_DOT": 8.52e-06, "MEAN_MOTION_DDOT": 0}, "tle": {"line1": "1 39766U 14029A   25359.86382509  .00000852  00000+0  12098-3 0  9999", "line2": "2 39766  97.9218  94.5228 0001391  97.4006 262.7364 14.79469129625958"}}, "geometry": {"type": "Point", "coordinates": [-77.59090123382722, 43.505575213159275]}}, {"type": "Feature", "properties": {"norad_id": 40010, "name": "KAZEOSAT 2", "group": "resource", "lat": -38.61747189136805, "lon": -150.13741625370264, "alt_km": 625.2478683326381, "timestamp": "2025-12-26T03:50:11.744791+00:00", "meta": {"OBJECT_NAME": "KAZEOSAT 2", "OBJECT_ID": "2014-033A", "EPOCH": "2025-12-25T19:55:38.885952", "MEAN_MOTION": 14.85188596, "ECCENTRICITY": 0.0008763, "INCLINATION": 97.5496, "RA_OF_ASC_NODE": 203.469, "ARG_OF_PERICENTER": 161.8114, "MEAN_ANOMALY": 198.3417, "EPHEMERIS_TYPE": 0, "CLASSIFICATION_TYPE": "U", "NORAD_CAT_ID": 40010, "ELEMENT_SET_NO": 999, "REV_AT_EPOCH": 62322, "BSTAR": 7.0756e-05, "MEAN_MOTION_DOT": 5.56e-06, "MEAN_MOTION_DDOT": 0}, "tle": {"line1": "1 40010U 14033A   25359.83031118  .00000556  00000+0  70756-4 0  9999", "line2": "2 40010  97.5496 203.4690 0008763 161.8114 198.3417 14.85188596623220"}}, "geometry": {"type": "Point", "coordinates": [-150.13741625370264, -38.61747189136805]}}, {"type": "Feature", "properties": {"norad_id": 40011, "name": "HODOYOSHI-4", "group": "resource", "lat": 18.65804256097498, "lon": 10.946034555496295, "alt_km": 589.1583378553587, "timestamp": "2025-12-26T03:50:11.744802+00:00", "meta": {"OBJECT_NAME": "HODOYOSHI-4", "OBJECT_ID": "2014-033B", "EPOCH": "2025-12-25T20:39:28.094976", "MEAN_MOTION": 14.87527732, "ECCENTRICITY": 0.002418, "INCLINATION": 97.5411, "RA_OF_ASC_NODE": 188.098, "ARG_OF_PERICENTER": 157.0863, "MEAN_ANOMALY": 203.1438, "EPHEMERIS_TYPE": 0, "CLASSIFICATION_TYPE": "U", "NORAD_CAT_ID": 40011, "ELEMENT_SET_NO": 999, "REV_AT_EPOCH": 62303, "BSTAR": 0.00024728, "MEAN_MOTION_DOT": 2.203e-05, "MEAN_MOTION_DDOT": 0}, "tle": {"line1": "1 40011U 14033B   25359.86074184  .00002203  00000+0  24728-3 0  9991", "line2": "2 40011  97.5411 188.0980 0024180 157.0863 203.1438 14.87527732623035"}}, "geometry": {"type": "Point", "coordinates": [10.946034555496295, 18.65804256097498]}}, {"type": "Feature", "properties": {"norad_id": 40013, "name": "DEIMOS-2", "group": "resource", "lat": -43.100463922151405, "lon": 48.33511341965868, "alt_km": 595.5888103357056, "timestamp": "2025-12-26T03:50:11.744813+00:00", "meta": {"OBJECT_NAME": "DEIMOS-2", "OBJECT_ID": "2014-033D", "EPOCH": "2025-12-25T20:24:17.509824", "MEAN_MOTION": 14.93026526, "ECCENTRICITY": 0.0001354, "INCLINATION": 97.605, "RA_OF_ASC_NODE": 235.2183, "ARG_OF_PERICENTER": 109.4983, "MEAN_ANOMALY": 250.6383, "EPHEMERIS_TYPE": 0, "CLASSIFICATION_TYPE": "U", "NORAD_CAT_ID": 40013, "ELEMENT_SET_NO": 999, "REV_AT_EPOCH": 61185, "BSTAR": 0.00016751, "MEAN_MOTION_DOT": 1.688e-05, "MEAN_MOTION_DDOT": 0}, "tle": {"line1": "1 40013U 14033D   25359.85020266  .00001688  00000+0  16751-3 0  9997", "line2": "2 40013  97.6050 235.2183 0001354 109.4983 250.6383 14.93026526611854"}}, "geometry": {"type": "Point", "coordinates": [48.33511341965868, -43.100463922151405]}}, {"type": "Feature", "properties": {"norad_id": 40015, "name": "HODOYOSHI-3", "group": "resource", "lat": -41.896267750278966, "lon": 172.31087650652614, "alt_km": 630.3725448918967, "timestamp": "2025-12-26T03:50:11.744823+00:00", "meta": {"OBJECT_NAME": "HODOYOSHI-3", "OBJECT_ID": "2014-033F", "EPOCH": "2025-12-25T19:56:28.490784", "MEAN_MOTION": 14.84850258, "ECCENTRICITY": 0.0032583, "INCLINATION": 97.6208, "RA_OF_ASC_NODE": 165.0975, "ARG_OF_PERICENTER": 203.4924, "MEAN_ANOMALY": 156.4804, "EPHEMERIS_TYPE": 0, "CLASSIFICATION_TYPE": "U", "NORAD_CAT_ID": 40015, "ELEMENT_SET_NO": 999, "REV_AT_EPOCH": 62189, "BSTAR": 0.00019574, "MEAN_MOTION_DOT": 1.626e-05, "MEAN_MOTION_DDOT": 0}, "tle": {"line1": "1 40015U 14033F   25359.83088531  .00001626  00000+0  19574-3 0  9994", "line2": "2 40015  97.6208 165.0975 0032583 203.4924 156.4804 14.84850258621891"}}, "geometry": {"type": "Point", "coordinates": [172.31087650652614, -41.896267750278966]}}, {"type": "Feature", "properties": {"norad_id": 40053, "name": "SPOT 7", "group": "resource", "lat": -40.993758313732606, "lon": 69.02427813367903, "alt_km": 697.8721437835156, "timestamp": "2025-12-26T03:50:11.744834+00:00", "meta": {"OBJECT_NAME": "SPOT 7", "OBJECT_ID": "2014-034A", "EPOCH": "2025-12-25T19:48:22.906368", "MEAN_MOTION": 14.60750038, "ECCENTRICITY": 0.0001527, "INCLINATION": 98.0884, "RA_OF_ASC_NODE": 61.598, "ARG_OF_PERICENTER": 80.8905, "MEAN_ANOMALY": 279.2469, "EPHEMERIS_TYPE": 0, "CLASSIFICATION_TYPE": "U", "NORAD_CAT_ID": 40053, "ELEMENT_SET_NO": 999, "REV_AT_EPOCH": 61182, "BSTAR": 0.00013821, "MEAN_MOTION_DOT": 6.29e-06, "MEAN_MOTION_DDOT": 0}, "tle": {"line1": "1 40053U 14034A   25359.82526512  .00000629  00000+0  13821-3 0  9993", "line2": "2 40053  98.0884  61.5980 0001527  80.8905 279.2469 14.60750038611826"}}, "geometry": {"type": "Point", "coordinates": [69.02427813367903, -40.993758313732606]}}, {"type": "Feature", "properties": {"norad_id": 40072, "name": "SKYSAT-B", "group": "resource", "lat": 78.68540867819662, "lon": 171.90136662745758, "alt_km": 594.174658444259, "timestamp": "2025-12-26T03:50:11.744844+00:00", "meta": {"OBJECT_NAME": "SKYSAT-B", "OBJECT_ID": "2014-037D", "EPOCH": "2025-12-25T19:19:36.203232", "MEAN_MOTION": 14.87373258, "ECCENTRICITY": 0.0006854, "INCLINATION": 98.3629, "RA_OF_ASC_NODE": 304.2026, "ARG_OF_PERICENTER": 113.9297, "MEAN_ANOMALY": 246.2636, "EPHEMERIS_TYPE": 0, "CLASSIFICATION_TYPE": "U", "NORAD_CAT_ID": 40072, "ELEMENT_SET_NO": 999, "REV_AT_EPOCH": 62018, "BSTAR": 0.00021241, "MEAN_MOTION_DOT": 1.859e-05, "MEAN_MOTION_DDOT": 0}, "tle": {"line1": "1 40072U 14037D   25359.80528013  .00001859  00000+0  21241-3 0  9994", "line2": "2 40072  98.3629 304.2026 0006854 113.9297 246.2636 14.87373258620188"}}, "geometry": {"type": "Point", "coordinates": [171.90136662745758, 78.68540867819662]}}, {"type": "Feature", "properties": {"norad_id": 40115, "name": "WORLDVIEW-3 (WV-3)", "group": "resource", "lat": -53.542049513524944, "lon": -118.52304839684795, "alt_km": 622.0369258638993, "timestamp": "2025-12-26T03:50:11.744854+00:00", "meta": {"OBJECT_NAME": "WORLDVIEW-3 (WV-3)", "OBJECT_ID": "2014-048A", "EPOCH": "2025-12-25T18:41:50.961120", "MEAN_MOTION": 14.8467711, "ECCENTRICITY": 0.0002064, "INCLINATION": 97.8764, "RA_OF_ASC_NODE": 71.9002, "ARG_OF_PERICENTER": 128.2867, "MEAN_ANOMALY": 231.8534, "EPHEMERIS_TYPE": 0, "CLASSIFICATION_TYPE": "U", "NORAD_CAT_ID": 40115, "ELEMENT_SET_NO": 999, "REV_AT_EPOCH": 61617, "BSTAR": 0.00014151, "MEAN_MOTION_DOT": 1.144e-05, "MEAN_MOTION_DDOT": 0}, "tle": {"line1": "1 40115U 14048A   25359.77906205  .00001144  00000+0  14151-3 0  9992", "line2": "2 40115  97.8764  71.9002 0002064 128.2867 231.8534 14.84677110616175"}}, "geometry": {"type": "Point", "coordinates": [-118.52304839684795, -53.542049513524944]}}]}